COMMENT,ORIGINATOR,NORAD_CAT_ID,OBJECT_NAME,OBJECT_TYPE,CLASSIFICATION_TYPE,INTLDES,EPOCH,EPOCH_MICROSECONDS,MEAN_MOTION,ECCENTRICITY,INCLINATION,RA_OF_ASC_NODE,ARG_OF_PERICENTER,MEAN_ANOMALY,EPHEMERIS_TYPE,ELEMENT_SET_NO,REV_AT_EPOCH,BSTAR,MEAN_MOTION_DOT,MEAN_MOTION_DDOT,FILE,TLE_LINE0,TLE_LINE1,TLE_LINE2,OBJECT_ID,OBJECT_NUMBER,SEMIMAJOR_AXIS,PERIOD,APOGEE,PERIGEE,DECAYED,date
GENERATED VIA SPACETRACK.ORG API,18 SPCS,48888,SPACEBEE-103,PAYLOAD,U,21059K,2023/3/18 20:08,575552,15.25592437,0.0008154,97.5814,213.0647,229.2447,130.8083,0,999,9559,0.0012908,0.00032854,0,3864479,0 SPACEBEE-103,1 48888U 21059K   23077.83915018  .00032854  00000-0  12908-2 0  9991,2 48888  97.5814 213.0647 0008154 229.2447 130.8083 15.25592437 95597,2021-059K,48888,6867.144,94.39,494.609,483.41,0,
GENERATED VIA SPACETRACK.ORG API,18 SPCS,48888,SPACEBEE-103,PAYLOAD,U,21059K,2023/3/19 8:43,982656,15.25629333,0.0008146,97.5815,213.5964,227.0407,133.0148,0,999,9567,0.0012877,0.00032811,0,3864972,0 SPACEBEE-103,1 48888U 21059K   23078.36386554  .00032811  00000-0  12877-2 0  9995,2 48888  97.5815 213.5964 0008146 227.0407 133.0148 15.25629333 95670,2021-059K,48888,6867.033,94.387,494.492,483.304,0,
GENERATED VIA SPACETRACK.ORG API,18 SPCS,48888,SPACEBEE-103,PAYLOAD,U,21059K,2023/3/19 8:43,982656,15.25629333,0.0008146,97.5815,213.5964,227.0407,133.0148,0,999,9567,0.0012877,0.00032811,0,3865049,0 SPACEBEE-103,1 48888U 21059K   23078.36386554  .00032811  00000-0  12877-2 0  9995,2 48888  97.5815 213.5964 0008146 227.0407 133.0148 15.25629333 95670,2021-059K,48888,6867.033,94.387,494.492,483.304,0,
GENERATED VIA SPACETRACK.ORG API,18 SPCS,48888,SPACEBEE-103,PAYLOAD,U,21059K,2023/3/19 21:19,197440,15.25669205,0.0008161,97.5816,214.1285,225.0012,135.0565,0,999,9575,0.0013007,0.00033185,0,3865354,0 SPACEBEE-103,1 48888U 21059K   23078.88856710  .00033185  00000-0  13007-2 0  9999,2 48888  97.5816 214.1285 0008161 225.0012 135.0565 15.25669205 95757,2021-059K,48888,6866.914,94.385,494.383,483.175,0,
GENERATED VIA SPACETRACK.ORG API,18 SPCS,48888,SPACEBEE-103,PAYLOAD,U,21059K,2023/3/20 8:20,741568,15.25703723,0.0008173,97.5817,214.594,223.5587,136.5006,0,999,9582,0.0014156,0.00036175,0,3865846,0 SPACEBEE-103,1 48888U 21059K   23079.34767062  .00036175  00000-0  14156-2 0  9990,2 48888  97.5817 214.5940 0008173 223.5587 136.5006 15.25703723 95821,2021-059K,48888,6866.81,94.383,494.287,483.063,0,
GENERATED VIA SPACETRACK.ORG API,18 SPCS,48888,SPACEBEE-103,PAYLOAD,U,21059K,2023/3/20 8:20,741568,15.25703723,0.0008173,97.5817,214.594,223.5587,136.5006,0,999,9582,0.0014156,0.00036175,0,3865912,0 SPACEBEE-103,1 48888U 21059K   23079.34767062  .00036175  00000-0  14156-2 0  9990,2 48888  97.5817 214.5940 0008173 223.5587 136.5006 15.25703723 95821,2021-059K,48888,6866.81,94.383,494.287,483.063,0,
GENERATED VIA SPACETRACK.ORG API,18 SPCS,48888,SPACEBEE-103,PAYLOAD,U,21059K,2023/3/20 14:38,946944,15.25721172,0.0008169,97.5818,214.86,222.5311,137.5295,0,999,9586,0.0013506,0.00034521,0,3866115,0 SPACEBEE-103,1 48888U 21059K   23079.61001096  .00034521  00000-0  13506-2 0  9999,2 48888  97.5818 214.8600 0008169 222.5311 137.5295 15.25721172 95860,2021-059K,48888,6866.758,94.382,494.232,483.013,0,
GENERATED VIA SPACETRACK.ORG API,18 SPCS,48888,SPACEBEE-103,PAYLOAD,U,21059K,2023/3/21 7:57,337728,15.25782067,0.0008195,97.5821,215.5914,220.6685,139.3941,0,999,9597,0.0015254,0.00039094,0,3866730,0 SPACEBEE-103,1 48888U 21059K   23080.33142752  .00039094  00000-0  15254-2 0  9997,2 48888  97.5821 215.5914 0008195 220.6685 139.3941 15.25782067 95972,2021-059K,48888,6866.575,94.378,494.067,482.813,0,
GENERATED VIA SPACETRACK.ORG API,18 SPCS,48888,SPACEBEE-103,PAYLOAD,U,21059K,2023/3/21 20:32,96864,15.25823395,0.0008197,97.5823,216.1233,218.9601,141.1047,0,999,9605,0.0014932,0.0003831,0,3866886,0 SPACEBEE-103,1 48888U 21059K   23080.85607751  .00038310  00000-0  14932-2 0  9991,2 48888  97.5823 216.1233 0008197 218.9601 141.1047 15.25823395 96053,2021-059K,48888,6866.451,94.375,493.944,482.688,0,
GENERATED VIA SPACETRACK.ORG API,18 SPCS,48888,SPACEBEE-103,PAYLOAD,U,21059K,2023/3/21 22:07,237376,15.25828052,0.0008178,97.5824,216.1898,218.6073,141.4581,0,999,9606,0.0014819,0.00038024,0,3866953,0 SPACEBEE-103,1 48888U 21059K   23080.92165784  .00038024  00000-0  14819-2 0  9990,2 48888  97.5824 216.1898 0008178 218.6073 141.4581 15.25828052 96062,2021-059K,48888,6866.437,94.375,493.917,482.687,0,
GENERATED VIA SPACETRACK.ORG API,18 SPCS,48888,SPACEBEE-103,PAYLOAD,U,21059K,2023/3/22 21:43,706400,15.25912863,0.0008137,97.5828,217.1871,215.3935,144.6764,0,999,9621,0.0015755,0.00040546,0,3868201,0 SPACEBEE-103,1 48888U 21059K   23081.90533225  .00040546  00000-0  15755-2 0  9990,2 48888  97.5828 217.1871 0008137 215.3935 144.6764 15.25912863 96213,2021-059K,48888,6866.183,94.37,493.635,482.461,0,
GENERATED VIA SPACETRACK.ORG API,18 SPCS,48888,SPACEBEE-103,PAYLOAD,U,21059K,2023/3/23 4:01,817792,15.25931039,0.0008116,97.583,217.4534,214.0398,146.0321,0,999,9625,0.0014615,0.00037613,0,3868125,0 SPACEBEE-103,1 48888U 21059K   23082.16763678  .00037613  00000-0  14615-2 0  9991,2 48888  97.5830 217.4534 0008116 214.0398 146.0321 15.25931039 96256,2021-059K,48888,6866.128,94.369,493.566,482.421,0,
GENERATED VIA SPACETRACK.ORG API,18 SPCS,48888,SPACEBEE-103,PAYLOAD,U,21059K,2023/3/23 8:44,945056,15.25946125,0.0008104,97.5833,217.6527,213.5103,146.5623,0,999,9628,0.0013823,0.00035577,0,3868494,0 SPACEBEE-103,1 48888U 21059K   23082.36436279  .00035577  00000-0  13823-2 0  9994,2 48888  97.5833 217.6527 0008104 213.5103 146.5623 15.25946125 96283,2021-059K,48888,6866.083,94.368,493.512,482.384,0,
GENERATED VIA SPACETRACK.ORG API,18 SPCS,48888,SPACEBEE-103,PAYLOAD,U,21059K,2023/3/23 21:20,511552,15.26008028,0.0008097,97.5834,218.1847,211.791,148.284,0,999,9636,0.0020991,0.000543,0,3868816,0 SPACEBEE-103,1 48888U 21059K   23082.88895268  .00054300  00000-0  20991-2 0  9997,2 48888  97.5834 218.1847 0008097 211.7910 148.2840 15.26008028 96363,2021-059K,48888,6865.897,94.364,493.322,482.203,0,
GENERATED VIA SPACETRACK.ORG API,18 SPCS,48888,SPACEBEE-103,PAYLOAD,U,21059K,2023/3/24 3:37,143776,15.26077184,0.0008097,97.5833,218.4508,210.9717,149.1045,0,999,9640,0.004352,0.00113793,0,3869108,0 SPACEBEE-103,1 48888U 21059K   23083.15124009  .00113793  00000-0  43520-2 0  9991,2 48888  97.5833 218.4508 0008097 210.9717 149.1045 15.26077184 96406,2021-059K,48888,6865.69,94.36,493.114,481.996,0,
GENERATED VIA SPACETRACK.ORG API,18 SPCS,48888,SPACEBEE-103,PAYLOAD,U,21059K,2023/3/24 8:21,782368,15.26122068,0.0008072,97.5832,218.6504,210.2263,149.851,0,999,9643,0.0050357,0.00132183,0,3869846,0 SPACEBEE-103,1 48888U 21059K   23083.34794887  .00132183  00000-0  50357-2 0  9999,2 48888  97.5832 218.6504 0008072 210.2263 149.8510 15.26122068 96434,2021-059K,48888,6865.555,94.357,492.962,481.878,0,
GENERATED VIA SPACETRACK.ORG API,18 SPCS,48888,SPACEBEE-103,PAYLOAD,U,21059K,2023/3/24 14:38,575648,15.26105094,0.0008109,97.5833,218.9167,209.6915,150.3864,0,999,9647,0.0025364,0.00065922,0,3869776,0 SPACEBEE-103,1 48888U 21059K   23083.61022657  .00065922  00000-0  25364-2 0  9994,2 48888  97.5833 218.9167 0008109 209.6915 150.3864 15.26105094 96473,2021-059K,48888,6865.606,94.358,493.038,481.904,0,
GENERATED VIA SPACETRACK.ORG API,18 SPCS,48888,SPACEBEE-103,PAYLOAD,U,21059K,2023/3/24 16:13,680224,15.26111293,0.000809,97.5832,218.9832,209.505,150.5732,0,999,9648,0.0023986,0.00062318,0,3870109,0 SPACEBEE-103,1 48888U 21059K   23083.67579491  .00062318  00000-0  23986-2 0  9997,2 48888  97.5832 218.9832 0008090 209.5050 150.5732 15.26111293 96484,2021-059K,48888,6865.587,94.357,493.007,481.898,0,
GENERATED VIA SPACETRACK.ORG API,18 SPCS,48888,SPACEBEE-103,PAYLOAD,U,21059K,2023/3/25 7:57,519840,15.26167502,0.0008154,97.5833,219.648,207.3902,152.6907,0,999,9658,0.0017319,0.00044948,0,3870706,0 SPACEBEE-103,1 48888U 21059K   23084.33146435  .00044948  00000-0  17319-2 0  9991,2 48888  97.5833 219.6480 0008154 207.3902 152.6907 15.26167502 96587,2021-059K,48888,6865.419,94.354,492.882,481.686,0,
GENERATED VIA SPACETRACK.ORG API,18 SPCS,48888,SPACEBEE-103,PAYLOAD,U,21059K,2023/3/25 20:32,838752,15.26211151,0.0008066,97.5835,220.1804,206.0241,154.0593,0,999,9666,0.0017065,0.00044341,0,3871104,0 SPACEBEE-103,1 48888U 21059K   23084.85598193  .00044341  00000-0  17065-2 0  9995,2 48888  97.5835 220.1804 0008066 206.0241 154.0593 15.26211151 96666,2021-059K,48888,6865.288,94.351,492.691,481.615,0,
GENERATED VIA SPACETRACK.ORG API,18 SPCS,48888,SPACEBEE-103,PAYLOAD,U,21059K,2023/3/26 7:33,282400,15.26249947,0.000812,97.5836,220.6458,204.1363,155.9496,0,999,9673,0.0015265,0.00039678,0,3871883,0 SPACEBEE-103,1 48888U 21059K   23085.31492225  .00039678  00000-0  15265-2 0  9993,2 48888  97.5836 220.6458 0008120 204.1363 155.9496 15.26249947 96736,2021-059K,48888,6865.172,94.349,492.611,481.462,0,
GENERATED VIA SPACETRACK.ORG API,18 SPCS,48888,SPACEBEE-103,PAYLOAD,U,21059K,2023/3/26 21:43,718176,15.26290464,0.000808,97.5836,221.2448,202.2534,157.8355,0,999,9682,0.0013978,0.00036355,0,3871964,0 SPACEBEE-103,1 48888U 21059K   23085.90497359  .00036355  00000-0  13978-2 0  9999,2 48888  97.5836 221.2448 0008080 202.2534 157.8355 15.26290464 96821,2021-059K,48888,6865.05,94.346,492.462,481.368,0,
GENERATED VIA SPACETRACK.ORG API,18 SPCS,48888,SPACEBEE-103,PAYLOAD,U,21059K,2023/3/27 8:44,125376,15.26326309,0.0008081,97.5835,221.7106,200.3362,159.7556,0,999,9689,0.0014637,0.00038122,0,3872489,0 SPACEBEE-103,1 48888U 21059K   23086.36389034  .00038122  00000-0  14637-2 0  9997,2 48888  97.5835 221.7106 0008081 200.3362 159.7556 15.26326309 96894,2021-059K,48888,6864.943,94.344,492.355,481.26,0,
